[
    {
        "Altitude(m)": 714618.2831902554,
        "Argument of Periapsis(deg)": 0.006834072711976239,
        "Eccentricity": 0.0,
        "Inclination(deg)": 45.0,
        "Latitude(deg)": -37.265510702831826,
        "Longitude(deg)": 45.36827533332384,
        "Mean Anomaly(deg)": -58.534570011511526,
        "RAAN(deg)": 194.9935488351251,
        "Satellite Name": "Constellation 1 876",
        "Satellite Number": 876,
        "Semi-Major Axis(m)": 7083131.272910544,
        "Time(s)": 114
    },
    {
        "Altitude(m)": 714606.7300180709,
        "Argument of Periapsis(deg)": 0.006894020718221645,
        "Eccentricity": 0.0,
        "Inclination(deg)": 45.0,
        "Latitude(deg)": -37.237406885303834,
        "Longitude(deg)": 45.431486235277546,
        "Mean Anomaly(deg)": -58.473868871261566,
        "RAAN(deg)": 194.99349224595954,
        "Satellite Name": "Constellation 1 876",
        "Satellite Number": 876,
        "Semi-Major Axis(m)": 7083131.272910544,
        "Time(s)": 115
    },
    {
        "Altitude(m)": 714595.1624145878,
        "Argument of Periapsis(deg)": 0.006953968724467052,
        "Eccentricity": 0.0,
        "Inclination(deg)": 45.0,
        "Latitude(deg)": -37.2092646584481,
        "Longitude(deg)": 45.49464728552745,
        "Mean Anomaly(deg)": -58.413167731011704,
        "RAAN(deg)": 194.99343565679393,
        "Satellite Name": "Constellation 1 876",
        "Satellite Number": 876,
        "Semi-Major Axis(m)": 7083131.272910544,
        "Time(s)": 116
    },
    {
        "Altitude(m)": 714583.5804216479,
        "Argument of Periapsis(deg)": 0.007013916730712457,
        "Eccentricity": 0.0,
        "Inclination(deg)": 45.0,
        "Latitude(deg)": -37.18108408870467,
        "Longitude(deg)": 45.55775850416258,
        "Mean Anomaly(deg)": -58.352466590761736,
        "RAAN(deg)": 194.99337906762838,
        "Satellite Name": "Constellation 1 876",
        "Satellite Number": 876,
        "Semi-Major Axis(m)": 7083131.272910544,
        "Time(s)": 117
    },
    {
        "Altitude(m)": 714571.9840811208,
        "Argument of Periapsis(deg)": 0.007073864736957864,
        "Eccentricity": 0.0,
        "Inclination(deg)": 45.0,
        "Latitude(deg)": -37.15286524246986,
        "Longitude(deg)": 45.620819911569306,
        "Mean Anomaly(deg)": -58.2917654505119,
        "RAAN(deg)": 194.99332247846283,
        "Satellite Name": "Constellation 1 876",
        "Satellite Number": 876,
        "Semi-Major Axis(m)": 7083131.272910544,
        "Time(s)": 118
    },
    {
        "Altitude(m)": 714560.3734349406,
        "Argument of Periapsis(deg)": 0.0071338127432032696,
        "Eccentricity": 0.0,
        "Inclination(deg)": 45.0,
        "Latitude(deg)": -37.12460818609586,
        "Longitude(deg)": 45.683831360333656,
        "Mean Anomaly(deg)": -58.23106431026201,
        "RAAN(deg)": 194.99326588929725,
        "Satellite Name": "Constellation 1 876",
        "Satellite Number": 876,
        "Semi-Major Axis(m)": 7083131.272910544,
        "Time(s)": 119
    },
    {
        "Altitude(m)": 714548.7485250835,
        "Argument of Periapsis(deg)": 0.007193760749448674,
        "Eccentricity": 0.0,
        "Inclination(deg)": 45.0,
        "Latitude(deg)": -37.096312985889604,
        "Longitude(deg)": 45.7467932076272,
        "Mean Anomaly(deg)": -58.17036317001205,
        "RAAN(deg)": 194.9932093001317,
        "Satellite Name": "Constellation 1 876",
        "Satellite Number": 876,
        "Semi-Major Axis(m)": 7083131.272910544,
        "Time(s)": 120
    },
    {
        "Altitude(m)": 714537.1093935687,
        "Argument of Periapsis(deg)": 0.007253708755694079,
        "Eccentricity": 0.0,
        "Inclination(deg)": 45.0,
        "Latitude(deg)": -37.06797970811393,
        "Longitude(deg)": 45.809705306624124,
        "Mean Anomaly(deg)": -58.10966202976222,
        "RAAN(deg)": 194.9931527109661,
        "Satellite Name": "Constellation 1 876",
        "Satellite Number": 876,
        "Semi-Major Axis(m)": 7083131.272910544,
        "Time(s)": 121
    },
    {
        "Altitude(m)": 714525.4560824694,
        "Argument of Periapsis(deg)": 0.0073136567619394854,
        "Eccentricity": 0.0,
        "Inclination(deg)": 45.0,
        "Latitude(deg)": -37.0396084189861,
        "Longitude(deg)": 45.87256767888782,
        "Mean Anomaly(deg)": -58.04896088951233,
        "RAAN(deg)": 194.99309612180053,
        "Satellite Name": "Constellation 1 876",
        "Satellite Number": 876,
        "Semi-Major Axis(m)": 7083131.272910544,
        "Time(s)": 122
    },
    {
        "Altitude(m)": 714513.7886339029,
        "Argument of Periapsis(deg)": 0.0073736047681848904,
        "Eccentricity": 0.0,
        "Inclination(deg)": 45.0,
        "Latitude(deg)": -37.01119918467787,
        "Longitude(deg)": 45.935380346272474,
        "Mean Anomaly(deg)": -57.9882597492624,
        "RAAN(deg)": 194.99303953263495,
        "Satellite Name": "Constellation 1 876",
        "Satellite Number": 876,
        "Semi-Major Axis(m)": 7083131.272910544,
        "Time(s)": 123
    },
    {
        "Altitude(m)": 714502.1070900331,
        "Argument of Periapsis(deg)": 0.007433552774430298,
        "Eccentricity": 0.0,
        "Inclination(deg)": 45.0,
        "Latitude(deg)": -36.982752071315154,
        "Longitude(deg)": 45.998143330921245,
        "Mean Anomaly(deg)": -57.9275586090125,
        "RAAN(deg)": 194.9929829434694,
        "Satellite Name": "Constellation 1 876",
        "Satellite Number": 876,
        "Semi-Major Axis(m)": 7083131.272910544,
        "Time(s)": 124
    },
    {
        "Altitude(m)": 714490.4114930722,
        "Argument of Periapsis(deg)": 0.007493500780675703,
        "Eccentricity": 0.0,
        "Inclination(deg)": 45.0,
        "Latitude(deg)": -36.954267144977564,
        "Longitude(deg)": 46.06085665526562,
        "Mean Anomaly(deg)": -57.86685746876257,
        "RAAN(deg)": 194.9929263543038,
        "Satellite Name": "Constellation 1 876",
        "Satellite Number": 876,
        "Semi-Major Axis(m)": 7083131.272910544,
        "Time(s)": 125
    },
    {
        "Altitude(m)": 714478.7018852823,
        "Argument of Periapsis(deg)": 0.007553448786921108,
        "Eccentricity": 0.0,
        "Inclination(deg)": 45.0,
        "Latitude(deg)": -36.92574447169858,
        "Longitude(deg)": 46.123520173926416,
        "Mean Anomaly(deg)": -57.80615632851271,
        "RAAN(deg)": 194.99286976513824,
        "Satellite Name": "Constellation 1 876",
        "Satellite Number": 876,
        "Semi-Major Axis(m)": 7083131.272910544,
        "Time(s)": 126
    },
    {
        "Altitude(m)": 714466.9783089628,
        "Argument of Periapsis(deg)": 0.007613396793166514,
        "Eccentricity": 0.0,
        "Inclination(deg)": 45.0,
        "Latitude(deg)": -36.89718411746395,
        "Longitude(deg)": 46.186134246100536,
        "Mean Anomaly(deg)": -57.745455188262845,
        "RAAN(deg)": 194.99281317597269,
        "Satellite Name": "Constellation 1 876",
        "Satellite Number": 876,
        "Semi-Major Axis(m)": 7083131.272910544,
        "Time(s)": 127
    },
    {
        "Altitude(m)": 714455.2408064671,
        "Argument of Periapsis(deg)": 0.007673344799411918,
        "Eccentricity": 0.0,
        "Inclination(deg)": 45.0,
        "Latitude(deg)": -36.86858614821311,
        "Longitude(deg)": 46.24869872697796,
        "Mean Anomaly(deg)": -57.684754048012884,
        "RAAN(deg)": 194.9927565868071,
        "Satellite Name": "Constellation 1 876",
        "Satellite Number": 876,
        "Semi-Major Axis(m)": 7083131.272910544,
        "Time(s)": 128
    },
    {
        "Altitude(m)": 714443.4894201964,
        "Argument of Periapsis(deg)": 0.007733292805657325,
        "Eccentricity": 0.0,
        "Inclination(deg)": 45.0,
        "Latitude(deg)": -36.83995062983775,
        "Longitude(deg)": 46.311213640127846,
        "Mean Anomaly(deg)": -57.624052907763016,
        "RAAN(deg)": 194.99269999764155,
        "Satellite Name": "Constellation 1 876",
        "Satellite Number": 876,
        "Semi-Major Axis(m)": 7083131.272910544,
        "Time(s)": 129
    },
    {
        "Altitude(m)": 714431.7241925888,
        "Argument of Periapsis(deg)": 0.00779324081190273,
        "Eccentricity": 0.0,
        "Inclination(deg)": 45.0,
        "Latitude(deg)": -36.81127762818174,
        "Longitude(deg)": 46.37367900940043,
        "Mean Anomaly(deg)": -57.56335176751317,
        "RAAN(deg)": 194.99264340847594,
        "Satellite Name": "Constellation 1 876",
        "Satellite Number": 876,
        "Semi-Major Axis(m)": 7083131.272910544,
        "Time(s)": 130
    },
    {
        "Altitude(m)": 714419.9451661371,
        "Argument of Periapsis(deg)": 0.007853188818148135,
        "Eccentricity": 0.0,
        "Inclination(deg)": 45.0,
        "Latitude(deg)": -36.782567209040856,
        "Longitude(deg)": 46.436094858925806,
        "Mean Anomaly(deg)": -57.50265062726319,
        "RAAN(deg)": 194.9925868193104,
        "Satellite Name": "Constellation 1 876",
        "Satellite Number": 876,
        "Semi-Major Axis(m)": 7083131.272910544,
        "Time(s)": 131
    },
    {
        "Altitude(m)": 714408.1523833789,
        "Argument of Periapsis(deg)": 0.007913136824393542,
        "Eccentricity": 0.0,
        "Inclination(deg)": 45.0,
        "Latitude(deg)": -36.75381943816261,
        "Longitude(deg)": 46.498461213111874,
        "Mean Anomaly(deg)": -57.44194948701334,
        "RAAN(deg)": 194.9925302301448,
        "Satellite Name": "Constellation 1 876",
        "Satellite Number": 876,
        "Semi-Major Axis(m)": 7083131.272910544,
        "Time(s)": 132
    }
]